"timestamp","date","time","report_type","raw_text","station_type","status","permissible_usage","temperature","dew_point_temperature","qnh","mean_wind_speed","max_wind_speed","mean_wind_direction","wind_counter_clock_direction","wind_clock_direction","horizontal_visibility","clouds","change_indicator","weather_label"
"2025-07-15 14:21:00","20250715","14:00:00",METAR,"METAR RKSI 150500Z 26006KT 210V290 9999 -RA FEW010 BKN030
          OVC070 23/21 Q0996 NOSIG=",MANNED,NORMAL,OPERATIONAL,"23","21","0996","006",-,"260","210","290","10000",FEW010 BKN030 OVC070,NO_SIGNIFICANT_CHANGES,
"2025-07-15 14:31:00","20250715","14:30:00",METAR,"METAR RKSI 150530Z 25005KT 9999 -RA FEW010 BKN045 OVC080 24/21
          Q0996 NOSIG=",MANNED,NORMAL,OPERATIONAL,"24","21","0996","005",-,"250",-,-,"10000",FEW010 BKN045 OVC080,NO_SIGNIFICANT_CHANGES,
"2025-07-15 14:41:00","20250715","14:30:00",METAR,"METAR RKSI 150530Z 25005KT 9999 -RA FEW010 BKN045 OVC080 24/21
          Q0996 NOSIG=",MANNED,NORMAL,OPERATIONAL,"24","21","0996","005",-,"250",-,-,"10000",FEW010 BKN045 OVC080,NO_SIGNIFICANT_CHANGES,
"2025-07-15 14:51:00","20250715","14:30:00",METAR,"METAR RKSI 150530Z 25005KT 9999 -RA FEW010 BKN045 OVC080 24/21
          Q0996 NOSIG=",MANNED,NORMAL,OPERATIONAL,"24","21","0996","005",-,"250",-,-,"10000",FEW010 BKN045 OVC080,NO_SIGNIFICANT_CHANGES,
"2025-07-15 15:01:00","20250715","15:00:00",METAR,"METAR RKSI 150600Z 26003KT 220V310 9999 -RA SCT045 BKN085 24/20
          Q0996 NOSIG=",MANNED,NORMAL,OPERATIONAL,"24","20","0996","003",-,"260","220","310","10000",SCT045 BKN085,NO_SIGNIFICANT_CHANGES,
"2025-07-15 15:11:00","20250715","15:00:00",METAR,"METAR RKSI 150600Z 26003KT 220V310 9999 -RA SCT045 BKN085 24/20
          Q0996 NOSIG=",MANNED,NORMAL,OPERATIONAL,"24","20","0996","003",-,"260","220","310","10000",SCT045 BKN085,NO_SIGNIFICANT_CHANGES,
"2025-07-15 15:21:00","20250715","15:00:00",METAR,"METAR RKSI 150600Z 26003KT 220V310 9999 -RA SCT045 BKN085 24/20
          Q0996 NOSIG=",MANNED,NORMAL,OPERATIONAL,"24","20","0996","003",-,"260","220","310","10000",SCT045 BKN085,NO_SIGNIFICANT_CHANGES,
"2025-07-15 15:31:00","20250715","15:30:00",METAR,"METAR RKSI 150630Z 29004KT 260V320 9999 -RA FEW025 BKN065
          BKN110 25/20 Q0996 NOSIG=",MANNED,NORMAL,OPERATIONAL,"25","20","0996","004",-,"290","260","320","10000",FEW025 BKN065 BKN110,NO_SIGNIFICANT_CHANGES,
"2025-07-15 15:41:00","20250715","15:30:00",METAR,"METAR RKSI 150630Z 29004KT 260V320 9999 -RA FEW025 BKN065
          BKN110 25/20 Q0996 NOSIG=",MANNED,NORMAL,OPERATIONAL,"25","20","0996","004",-,"290","260","320","10000",FEW025 BKN065 BKN110,NO_SIGNIFICANT_CHANGES,
"2025-07-15 15:51:00","20250715","15:30:00",METAR,"METAR RKSI 150630Z 29004KT 260V320 9999 -RA FEW025 BKN065
          BKN110 25/20 Q0996 NOSIG=",MANNED,NORMAL,OPERATIONAL,"25","20","0996","004",-,"290","260","320","10000",FEW025 BKN065 BKN110,NO_SIGNIFICANT_CHANGES,
"2025-07-15 16:01:00","20250715","16:00:00",METAR,"METAR RKSI 150700Z 26006KT 210V310 9999 FEW030 BKN070 BKN110
          24/20 Q0996 NOSIG=",MANNED,NORMAL,OPERATIONAL,"24","20","0996","006",-,"260","210","310","10000",FEW030 BKN070 BKN110,NO_SIGNIFICANT_CHANGES,
"2025-07-15 16:11:00","20250715","16:00:00",METAR,"METAR RKSI 150700Z 26006KT 210V310 9999 FEW030 BKN070 BKN110
          24/20 Q0996 NOSIG=",MANNED,NORMAL,OPERATIONAL,"24","20","0996","006",-,"260","210","310","10000",FEW030 BKN070 BKN110,NO_SIGNIFICANT_CHANGES,
"2025-07-15 16:21:00","20250715","16:00:00",METAR,"METAR RKSI 150700Z 26006KT 210V310 9999 FEW030 BKN070 BKN110
          24/20 Q0996 NOSIG=",MANNED,NORMAL,OPERATIONAL,"24","20","0996","006",-,"260","210","310","10000",FEW030 BKN070 BKN110,NO_SIGNIFICANT_CHANGES,
"2025-07-15 16:31:00","20250715","16:30:00",METAR,METAR RKSI 150730Z 23005KT CAVOK 24/20 Q0996 NOSIG=,MANNED,NORMAL,OPERATIONAL,"24","20","0996","005",-,"230",-,-,"10000",CAVOK,NO_SIGNIFICANT_CHANGES,
"2025-07-15 16:41:00","20250715","16:30:00",METAR,METAR RKSI 150730Z 23005KT CAVOK 24/20 Q0996 NOSIG=,MANNED,NORMAL,OPERATIONAL,"24","20","0996","005",-,"230",-,-,"10000",CAVOK,NO_SIGNIFICANT_CHANGES,
"2025-07-15 16:51:00","20250715","16:30:00",METAR,METAR RKSI 150730Z 23005KT CAVOK 24/20 Q0996 NOSIG=,MANNED,NORMAL,OPERATIONAL,"24","20","0996","005",-,"230",-,-,"10000",CAVOK,NO_SIGNIFICANT_CHANGES,
"2025-07-15 17:01:00","20250715","17:00:00",METAR,METAR RKSI 150800Z 21005KT CAVOK 23/20 Q0996 NOSIG=,MANNED,NORMAL,OPERATIONAL,"23","20","0996","005",-,"210",-,-,"10000",CAVOK,NO_SIGNIFICANT_CHANGES,
"2025-07-15 17:11:00","20250715","17:00:00",METAR,METAR RKSI 150800Z 21005KT CAVOK 23/20 Q0996 NOSIG=,MANNED,NORMAL,OPERATIONAL,"23","20","0996","005",-,"210",-,-,"10000",CAVOK,NO_SIGNIFICANT_CHANGES,
"2025-07-15 17:21:00","20250715","17:00:00",METAR,METAR RKSI 150800Z 21005KT CAVOK 23/20 Q0996 NOSIG=,MANNED,NORMAL,OPERATIONAL,"23","20","0996","005",-,"210",-,-,"10000",CAVOK,NO_SIGNIFICANT_CHANGES,
"2025-07-15 17:31:00","20250715","17:30:00",METAR,"METAR RKSI 150830Z 22006KT 9999 SCT040 BKN080 BKN110 24/20
          Q0996 NOSIG=",MANNED,NORMAL,OPERATIONAL,"24","20","0996","006",-,"220",-,-,"10000",SCT040 BKN080 BKN110,NO_SIGNIFICANT_CHANGES,
"2025-07-15 17:41:00","20250715","17:30:00",METAR,"METAR RKSI 150830Z 22006KT 9999 SCT040 BKN080 BKN110 24/20
          Q0996 NOSIG=",MANNED,NORMAL,OPERATIONAL,"24","20","0996","006",-,"220",-,-,"10000",SCT040 BKN080 BKN110,NO_SIGNIFICANT_CHANGES,
"2025-07-15 17:51:00","20250715","17:30:00",METAR,"METAR RKSI 150830Z 22006KT 9999 SCT040 BKN080 BKN110 24/20
          Q0996 NOSIG=",MANNED,NORMAL,OPERATIONAL,"24","20","0996","006",-,"220",-,-,"10000",SCT040 BKN080 BKN110,NO_SIGNIFICANT_CHANGES,
"2025-07-15 18:01:00","20250715","18:00:00",METAR,"METAR RKSI 150900Z 21007KT 9999 SCT040 BKN065 BKN090 24/20
          Q0997 NOSIG=",MANNED,NORMAL,OPERATIONAL,"24","20","0997","007",-,"210",-,-,"10000",SCT040 BKN065 BKN090,NO_SIGNIFICANT_CHANGES,
"2025-07-15 18:11:00","20250715","18:00:00",METAR,"METAR RKSI 150900Z 21007KT 9999 SCT040 BKN065 BKN090 24/20
          Q0997 NOSIG=",MANNED,NORMAL,OPERATIONAL,"24","20","0997","007",-,"210",-,-,"10000",SCT040 BKN065 BKN090,NO_SIGNIFICANT_CHANGES,
"2025-07-15 18:21:00","20250715","18:00:00",METAR,"METAR RKSI 150900Z 21007KT 9999 SCT040 BKN065 BKN090 24/20
          Q0997 NOSIG=",MANNED,NORMAL,OPERATIONAL,"24","20","0997","007",-,"210",-,-,"10000",SCT040 BKN065 BKN090,NO_SIGNIFICANT_CHANGES,
"2025-07-15 18:31:00","20250715","18:30:00",METAR,"METAR RKSI 150930Z 19003KT 160V240 9999 BKN035 BKN080 24/20
          Q0997 NOSIG=",MANNED,NORMAL,OPERATIONAL,"24","20","0997","003",-,"190","160","240","10000",BKN035 BKN080,NO_SIGNIFICANT_CHANGES,
"2025-07-15 18:41:00","20250715","18:30:00",METAR,"METAR RKSI 150930Z 19003KT 160V240 9999 BKN035 BKN080 24/20
          Q0997 NOSIG=",MANNED,NORMAL,OPERATIONAL,"24","20","0997","003",-,"190","160","240","10000",BKN035 BKN080,NO_SIGNIFICANT_CHANGES,
"2025-07-15 18:51:00","20250715","18:30:00",METAR,"METAR RKSI 150930Z 19003KT 160V240 9999 BKN035 BKN080 24/20
          Q0997 NOSIG=",MANNED,NORMAL,OPERATIONAL,"24","20","0997","003",-,"190","160","240","10000",BKN035 BKN080,NO_SIGNIFICANT_CHANGES,
"2025-07-15 19:01:00","20250715","19:00:00",METAR,METAR RKSI 151000Z 21009KT 9999 BKN030 BKN085 23/20 Q0997 NOSIG=,MANNED,NORMAL,OPERATIONAL,"23","20","0997","009",-,"210",-,-,"10000",BKN030 BKN085,NO_SIGNIFICANT_CHANGES,
"2025-07-15 19:11:00","20250715","19:00:00",METAR,METAR RKSI 151000Z 21009KT 9999 BKN030 BKN085 23/20 Q0997 NOSIG=,MANNED,NORMAL,OPERATIONAL,"23","20","0997","009",-,"210",-,-,"10000",BKN030 BKN085,NO_SIGNIFICANT_CHANGES,
"2025-07-15 19:21:00","20250715","19:00:00",METAR,METAR RKSI 151000Z 21009KT 9999 BKN030 BKN085 23/20 Q0997 NOSIG=,MANNED,NORMAL,OPERATIONAL,"23","20","0997","009",-,"210",-,-,"10000",BKN030 BKN085,NO_SIGNIFICANT_CHANGES,
"2025-07-15 19:31:00","20250715","19:30:00",METAR,METAR RKSI 151030Z 19007KT 9999 BKN030 BKN085 24/19 Q0997 NOSIG=,MANNED,NORMAL,OPERATIONAL,"24","19","0997","007",-,"190",-,-,"10000",BKN030 BKN085,NO_SIGNIFICANT_CHANGES,
"2025-07-15 19:41:00","20250715","19:30:00",METAR,METAR RKSI 151030Z 19007KT 9999 BKN030 BKN085 24/19 Q0997 NOSIG=,MANNED,NORMAL,OPERATIONAL,"24","19","0997","007",-,"190",-,-,"10000",BKN030 BKN085,NO_SIGNIFICANT_CHANGES,
"2025-07-15 19:51:00","20250715","19:30:00",METAR,METAR RKSI 151030Z 19007KT 9999 BKN030 BKN085 24/19 Q0997 NOSIG=,MANNED,NORMAL,OPERATIONAL,"24","19","0997","007",-,"190",-,-,"10000",BKN030 BKN085,NO_SIGNIFICANT_CHANGES,
"2025-07-15 20:01:00","20250715","20:00:00",METAR,"METAR RKSI 151100Z 18006KT 150V210 9999 BKN030 BKN100 24/19
          Q0998 NOSIG=",MANNED,NORMAL,OPERATIONAL,"24","19","0998","006",-,"180","150","210","10000",BKN030 BKN100,NO_SIGNIFICANT_CHANGES,
"2025-07-15 20:11:00","20250715","20:00:00",METAR,"METAR RKSI 151100Z 18006KT 150V210 9999 SCT030 BKN100 24/19
          Q0998 NOSIG=",MANNED,NORMAL,OPERATIONAL,"24","19","0998","006",-,"180","150","210","10000",SCT030 BKN100,NO_SIGNIFICANT_CHANGES,
"2025-07-15 20:21:00","20250715","20:00:00",METAR,"METAR RKSI 151100Z 18006KT 150V210 9999 SCT030 BKN100 24/19
          Q0998 NOSIG=",MANNED,NORMAL,OPERATIONAL,"24","19","0998","006",-,"180","150","210","10000",SCT030 BKN100,NO_SIGNIFICANT_CHANGES,
"2025-07-15 20:31:00","20250715","20:30:00",METAR,"METAR RKSI 151130Z 15004KT 120V200 9999 SCT030 BKN100 23/20
          Q0998 NOSIG=",MANNED,NORMAL,OPERATIONAL,"23","20","0998","004",-,"150","120","200","10000",SCT030 BKN100,NO_SIGNIFICANT_CHANGES,
"2025-07-15 20:41:00","20250715","20:30:00",METAR,"METAR RKSI 151130Z 15004KT 120V200 9999 SCT030 BKN100 23/20
          Q0998 NOSIG=",MANNED,NORMAL,OPERATIONAL,"23","20","0998","004",-,"150","120","200","10000",SCT030 BKN100,NO_SIGNIFICANT_CHANGES,
"2025-07-15 20:51:00","20250715","20:30:00",METAR,"METAR RKSI 151130Z 15004KT 120V200 9999 SCT030 BKN100 23/20
          Q0998 NOSIG=",MANNED,NORMAL,OPERATIONAL,"23","20","0998","004",-,"150","120","200","10000",SCT030 BKN100,NO_SIGNIFICANT_CHANGES,
"2025-07-15 21:01:00","20250715","21:00:00",METAR,METAR RKSI 151200Z 14005KT 9999 BKN025 23/20 Q0998 NOSIG=,MANNED,NORMAL,OPERATIONAL,"23","20","0998","005",-,"140",-,-,"10000",BKN025,NO_SIGNIFICANT_CHANGES,
"2025-07-15 21:11:00","20250715","21:00:00",METAR,METAR RKSI 151200Z 14005KT 9999 BKN025 23/20 Q0998 NOSIG=,MANNED,NORMAL,OPERATIONAL,"23","20","0998","005",-,"140",-,-,"10000",BKN025,NO_SIGNIFICANT_CHANGES,
"2025-07-15 21:21:00","20250715","21:00:00",METAR,METAR RKSI 151200Z 14005KT 9999 BKN025 23/20 Q0998 NOSIG=,MANNED,NORMAL,OPERATIONAL,"23","20","0998","005",-,"140",-,-,"10000",BKN025,NO_SIGNIFICANT_CHANGES,
"2025-07-15 21:31:00","20250715","21:30:00",METAR,METAR RKSI 151230Z 14005KT 9999 SCT017 BKN025 23/20 Q0999 NOSIG=,MANNED,NORMAL,OPERATIONAL,"23","20","0999","005",-,"140",-,-,"10000",SCT017 BKN025,NO_SIGNIFICANT_CHANGES,
"2025-07-15 21:41:00","20250715","21:30:00",METAR,METAR RKSI 151230Z 14005KT 9999 SCT017 BKN025 23/20 Q0999 NOSIG=,MANNED,NORMAL,OPERATIONAL,"23","20","0999","005",-,"140",-,-,"10000",SCT017 BKN025,NO_SIGNIFICANT_CHANGES,
"2025-07-15 21:51:00","20250715","21:30:00",METAR,METAR RKSI 151230Z 14005KT 9999 SCT017 BKN025 23/20 Q0999 NOSIG=,MANNED,NORMAL,OPERATIONAL,"23","20","0999","005",-,"140",-,-,"10000",SCT017 BKN025,NO_SIGNIFICANT_CHANGES,
"2025-07-15 22:01:00","20250715","22:00:00",METAR,METAR RKSI 151300Z 15006KT 9999 SCT017 BKN130 23/20 Q0999 NOSIG=,MANNED,NORMAL,OPERATIONAL,"23","20","0999","006",-,"150",-,-,"10000",SCT017 BKN130,NO_SIGNIFICANT_CHANGES,
"2025-07-15 22:11:00","20250715","22:00:00",METAR,METAR RKSI 151300Z 15006KT 9999 SCT017 BKN130 23/20 Q0999 NOSIG=,MANNED,NORMAL,OPERATIONAL,"23","20","0999","006",-,"150",-,-,"10000",SCT017 BKN130,NO_SIGNIFICANT_CHANGES,
"2025-07-15 22:21:00","20250715","22:00:00",METAR,METAR RKSI 151300Z 15006KT 9999 SCT017 BKN130 23/20 Q0999 NOSIG=,MANNED,NORMAL,OPERATIONAL,"23","20","0999","006",-,"150",-,-,"10000",SCT017 BKN130,NO_SIGNIFICANT_CHANGES,
"2025-07-15 22:31:00","20250715","22:30:00",METAR,"METAR RKSI 151330Z 15006KT 120V180 9999 FEW015 BKN130 23/21
          Q0999 NOSIG=",MANNED,NORMAL,OPERATIONAL,"23","21","0999","006",-,"150","120","180","10000",FEW015 BKN130,NO_SIGNIFICANT_CHANGES,
"2025-07-15 22:41:00","20250715","22:30:00",METAR,"METAR RKSI 151330Z 15006KT 120V180 9999 FEW015 BKN130 23/21
          Q0999 NOSIG=",MANNED,NORMAL,OPERATIONAL,"23","21","0999","006",-,"150","120","180","10000",FEW015 BKN130,NO_SIGNIFICANT_CHANGES,
"2025-07-15 22:51:00","20250715","22:30:00",METAR,"METAR RKSI 151330Z 15006KT 120V180 9999 FEW015 BKN130 23/21
          Q0999 NOSIG=",MANNED,NORMAL,OPERATIONAL,"23","21","0999","006",-,"150","120","180","10000",FEW015 BKN130,NO_SIGNIFICANT_CHANGES,
"2025-07-15 23:01:00","20250715","23:00:00",METAR,METAR RKSI 151400Z 15006KT 9999 SCT012 BKN130 23/21 Q0999 NOSIG=,MANNED,NORMAL,OPERATIONAL,"23","21","0999","006",-,"150",-,-,"10000",SCT012 BKN130,NO_SIGNIFICANT_CHANGES,
"2025-07-15 23:11:00","20250715","23:00:00",METAR,METAR RKSI 151400Z 15006KT 9999 SCT012 BKN130 23/21 Q0999 NOSIG=,MANNED,NORMAL,OPERATIONAL,"23","21","0999","006",-,"150",-,-,"10000",SCT012 BKN130,NO_SIGNIFICANT_CHANGES,
"2025-07-15 23:21:00","20250715","23:00:00",METAR,METAR RKSI 151400Z 15006KT 9999 SCT012 BKN130 23/21 Q0999 NOSIG=,MANNED,NORMAL,OPERATIONAL,"23","21","0999","006",-,"150",-,-,"10000",SCT012 BKN130,NO_SIGNIFICANT_CHANGES,
"2025-07-15 23:31:00","20250715","23:30:00",METAR,METAR RKSI 151430Z 16008KT 9999 SCT012 BKN130 24/21 Q0999 NOSIG=,MANNED,NORMAL,OPERATIONAL,"24","21","0999","008",-,"160",-,-,"10000",SCT012 BKN130,NO_SIGNIFICANT_CHANGES,
"2025-07-15 23:41:00","20250715","23:30:00",METAR,METAR RKSI 151430Z 16008KT 9999 SCT012 BKN130 24/21 Q0999 NOSIG=,MANNED,NORMAL,OPERATIONAL,"24","21","0999","008",-,"160",-,-,"10000",SCT012 BKN130,NO_SIGNIFICANT_CHANGES,
"2025-07-15 23:51:00","20250715","23:30:00",METAR,METAR RKSI 151430Z 16008KT 9999 SCT012 BKN130 24/21 Q0999 NOSIG=,MANNED,NORMAL,OPERATIONAL,"24","21","0999","008",-,"160",-,-,"10000",SCT012 BKN130,NO_SIGNIFICANT_CHANGES,
"2025-07-16 00:01:00","20250716","00:00:00",METAR,METAR RKSI 151500Z 17008KT 9999 SCT010 BKN130 24/21 Q0999 NOSIG=,MANNED,NORMAL,OPERATIONAL,"24","21","0999","008",-,"170",-,-,"10000",SCT010 BKN130,NO_SIGNIFICANT_CHANGES,
"2025-07-16 00:11:00","20250716","00:00:00",METAR,METAR RKSI 151500Z 17008KT 9999 SCT010 BKN130 24/21 Q0999 NOSIG=,MANNED,NORMAL,OPERATIONAL,"24","21","0999","008",-,"170",-,-,"10000",SCT010 BKN130,NO_SIGNIFICANT_CHANGES,
"2025-07-16 00:21:00","20250716","00:00:00",METAR,METAR RKSI 151500Z 17008KT 9999 SCT010 BKN130 24/21 Q0999 NOSIG=,MANNED,NORMAL,OPERATIONAL,"24","21","0999","008",-,"170",-,-,"10000",SCT010 BKN130,NO_SIGNIFICANT_CHANGES,
"2025-07-16 00:31:00","20250716","00:30:00",METAR,METAR RKSI 151530Z 16007KT 9999 SCT010 BKN130 23/21 Q0999 NOSIG=,MANNED,NORMAL,OPERATIONAL,"23","21","0999","007",-,"160",-,-,"10000",SCT010 BKN130,NO_SIGNIFICANT_CHANGES,
"2025-07-16 00:41:00","20250716","00:30:00",METAR,METAR RKSI 151530Z 16007KT 9999 SCT010 BKN130 23/21 Q0999 NOSIG=,MANNED,NORMAL,OPERATIONAL,"23","21","0999","007",-,"160",-,-,"10000",SCT010 BKN130,NO_SIGNIFICANT_CHANGES,
"2025-07-16 00:51:04","20250716","00:30:00",METAR,METAR RKSI 151530Z 16007KT 9999 SCT010 BKN130 23/21 Q0999 NOSIG=,MANNED,NORMAL,OPERATIONAL,"23","21","0999","007",-,"160",-,-,"10000",SCT010 BKN130,NO_SIGNIFICANT_CHANGES,
"2025-07-16 01:01:00","20250716","01:00:00",METAR,METAR RKSI 151600Z 17008KT 9999 SCT010 BKN130 23/22 Q1000 NOSIG=,MANNED,NORMAL,OPERATIONAL,"23","22","1000","008",-,"170",-,-,"10000",SCT010 BKN130,NO_SIGNIFICANT_CHANGES,
"2025-07-16 01:11:00","20250716","01:00:00",METAR,METAR RKSI 151600Z 17008KT 9999 SCT010 BKN130 23/22 Q1000 NOSIG=,MANNED,NORMAL,OPERATIONAL,"23","22","1000","008",-,"170",-,-,"10000",SCT010 BKN130,NO_SIGNIFICANT_CHANGES,
"2025-07-16 01:21:00","20250716","01:00:00",METAR,METAR RKSI 151600Z 17008KT 9999 SCT010 BKN130 23/22 Q1000 NOSIG=,MANNED,NORMAL,OPERATIONAL,"23","22","1000","008",-,"170",-,-,"10000",SCT010 BKN130,NO_SIGNIFICANT_CHANGES,
"2025-07-16 01:31:00","20250716","01:30:00",METAR,METAR RKSI 151630Z 17006KT 9999 SCT010 BKN130 23/22 Q1000 NOSIG=,MANNED,NORMAL,OPERATIONAL,"23","22","1000","006",-,"170",-,-,"10000",SCT010 BKN130,NO_SIGNIFICANT_CHANGES,
"2025-07-16 01:41:00","20250716","01:30:00",METAR,METAR RKSI 151630Z 17006KT 9999 SCT010 BKN130 23/22 Q1000 NOSIG=,MANNED,NORMAL,OPERATIONAL,"23","22","1000","006",-,"170",-,-,"10000",SCT010 BKN130,NO_SIGNIFICANT_CHANGES,
"2025-07-16 01:51:00","20250716","01:30:00",METAR,METAR RKSI 151630Z 17006KT 9999 SCT010 BKN130 23/22 Q1000 NOSIG=,MANNED,NORMAL,OPERATIONAL,"23","22","1000","006",-,"170",-,-,"10000",SCT010 BKN130,NO_SIGNIFICANT_CHANGES,
"2025-07-16 02:01:00","20250716","02:00:00",METAR,METAR RKSI 151700Z 17006KT 9999 SCT010 BKN130 23/22 Q1000 NOSIG=,MANNED,NORMAL,OPERATIONAL,"23","22","1000","006",-,"170",-,-,"10000",SCT010 BKN130,NO_SIGNIFICANT_CHANGES,
"2025-07-16 02:11:00","20250716","02:00:00",METAR,METAR RKSI 151700Z 17006KT 9999 SCT010 BKN130 23/22 Q1000 NOSIG=,MANNED,NORMAL,OPERATIONAL,"23","22","1000","006",-,"170",-,-,"10000",SCT010 BKN130,NO_SIGNIFICANT_CHANGES,
"2025-07-16 02:21:00","20250716","02:00:00",METAR,METAR RKSI 151700Z 17006KT 9999 SCT010 BKN130 23/22 Q1000 NOSIG=,MANNED,NORMAL,OPERATIONAL,"23","22","1000","006",-,"170",-,-,"10000",SCT010 BKN130,NO_SIGNIFICANT_CHANGES,
"2025-07-16 02:31:00","20250716","02:30:00",METAR,METAR RKSI 151730Z 17006KT 9999 SCT008 BKN130 24/22 Q1000 NOSIG=,MANNED,NORMAL,OPERATIONAL,"24","22","1000","006",-,"170",-,-,"10000",SCT008 BKN130,NO_SIGNIFICANT_CHANGES,
"2025-07-16 02:41:00","20250716","02:30:00",METAR,METAR RKSI 151730Z 17006KT 9999 SCT008 BKN130 24/22 Q1000 NOSIG=,MANNED,NORMAL,OPERATIONAL,"24","22","1000","006",-,"170",-,-,"10000",SCT008 BKN130,NO_SIGNIFICANT_CHANGES,
"2025-07-16 02:51:00","20250716","02:30:00",METAR,METAR RKSI 151730Z 17006KT 9999 SCT008 BKN130 24/22 Q1000 NOSIG=,MANNED,NORMAL,OPERATIONAL,"24","22","1000","006",-,"170",-,-,"10000",SCT008 BKN130,NO_SIGNIFICANT_CHANGES,
"2025-07-16 03:01:00","20250716","03:00:00",METAR,METAR RKSI 151800Z 17006KT 9999 SCT008 BKN160 24/22 Q1000 NOSIG=,MANNED,NORMAL,OPERATIONAL,"24","22","1000","006",-,"170",-,-,"10000",SCT008 BKN160,NO_SIGNIFICANT_CHANGES,
"2025-07-16 03:11:00","20250716","03:00:00",METAR,METAR RKSI 151800Z 17006KT 9999 SCT008 BKN160 24/22 Q1000 NOSIG=,MANNED,NORMAL,OPERATIONAL,"24","22","1000","006",-,"170",-,-,"10000",SCT008 BKN160,NO_SIGNIFICANT_CHANGES,
"2025-07-16 03:21:00","20250716","03:00:00",METAR,METAR RKSI 151800Z 17006KT 9999 SCT008 BKN160 24/22 Q1000 NOSIG=,MANNED,NORMAL,OPERATIONAL,"24","22","1000","006",-,"170",-,-,"10000",SCT008 BKN160,NO_SIGNIFICANT_CHANGES,
"2025-07-16 03:31:00","20250716","03:30:00",METAR,"METAR RKSI 151830Z 18008KT 8000 -RA BKN010 BKN140 24/23 Q1000
          NOSIG=",MANNED,NORMAL,OPERATIONAL,"24","23","1000","008",-,"180",-,-,"08000",BKN010 BKN140,NO_SIGNIFICANT_CHANGES,
"2025-07-16 03:41:00","20250716","03:30:00",METAR,"METAR RKSI 151830Z 18008KT 8000 -RA BKN010 BKN140 24/23 Q1000
          NOSIG=",MANNED,NORMAL,OPERATIONAL,"24","23","1000","008",-,"180",-,-,"08000",BKN010 BKN140,NO_SIGNIFICANT_CHANGES,
"2025-07-16 03:51:00","20250716","03:30:00",METAR,"METAR RKSI 151830Z 18008KT 8000 -RA BKN010 BKN140 24/23 Q1000
          NOSIG=",MANNED,NORMAL,OPERATIONAL,"24","23","1000","008",-,"180",-,-,"08000",BKN010 BKN140,NO_SIGNIFICANT_CHANGES,
"2025-07-16 04:01:00","20250716","04:00:00",METAR,"METAR RKSI 151900Z 19008KT 8000 -RA BKN010 BKN070 24/23 Q1000
          NOSIG=",MANNED,NORMAL,OPERATIONAL,"24","23","1000","008",-,"190",-,-,"08000",BKN010 BKN070,NO_SIGNIFICANT_CHANGES,
"2025-07-16 04:11:00","20250716","04:00:00",METAR,"METAR RKSI 151900Z 19008KT 8000 -RA BKN010 BKN070 24/23 Q1000
          NOSIG=",MANNED,NORMAL,OPERATIONAL,"24","23","1000","008",-,"190",-,-,"08000",BKN010 BKN070,NO_SIGNIFICANT_CHANGES,
"2025-07-16 04:21:00","20250716","04:00:00",METAR,"METAR RKSI 151900Z 19008KT 8000 -RA BKN010 BKN070 24/23 Q1000
          NOSIG=",MANNED,NORMAL,OPERATIONAL,"24","23","1000","008",-,"190",-,-,"08000",BKN010 BKN070,NO_SIGNIFICANT_CHANGES,
"2025-07-16 04:31:00","20250716","04:30:00",METAR,"METAR RKSI 151930Z 17007KT 6000 -RA SCT008 BKN050 OVC100 24/23
          Q1000 NOSIG=",MANNED,NORMAL,OPERATIONAL,"24","23","1000","007",-,"170",-,-,"06000",SCT008 BKN050 OVC100,NO_SIGNIFICANT_CHANGES,
"2025-07-16 04:41:00","20250716","04:30:00",METAR,"METAR RKSI 151930Z 17007KT 6000 -RA SCT008 BKN050 OVC100 24/23
          Q1000 NOSIG=",MANNED,NORMAL,OPERATIONAL,"24","23","1000","007",-,"170",-,-,"06000",SCT008 BKN050 OVC100,NO_SIGNIFICANT_CHANGES,
"2025-07-16 04:51:00","20250716","04:30:00",METAR,"METAR RKSI 151930Z 17007KT 6000 -RA SCT008 BKN050 OVC100 24/23
          Q1000 NOSIG=",MANNED,NORMAL,OPERATIONAL,"24","23","1000","007",-,"170",-,-,"06000",SCT008 BKN050 OVC100,NO_SIGNIFICANT_CHANGES,
"2025-07-16 05:01:00","20250716","05:00:00",METAR,"METAR RKSI 152000Z 16008KT 6000 -RA SCT007 BKN055 OVC130 23/23
          Q1000 NOSIG=",MANNED,NORMAL,OPERATIONAL,"23","23","1000","008",-,"160",-,-,"06000",SCT007 BKN055 OVC130,NO_SIGNIFICANT_CHANGES,
"2025-07-16 05:11:00","20250716","05:00:00",METAR,"METAR RKSI 152000Z 16008KT 6000 -RA SCT007 BKN055 OVC130 23/23
          Q1000 NOSIG=",MANNED,NORMAL,OPERATIONAL,"23","23","1000","008",-,"160",-,-,"06000",SCT007 BKN055 OVC130,NO_SIGNIFICANT_CHANGES,
"2025-07-16 05:21:00","20250716","05:00:00",METAR,"METAR RKSI 152000Z 16008KT 6000 -RA SCT007 BKN055 OVC130 23/23
          Q1000 NOSIG=",MANNED,NORMAL,OPERATIONAL,"23","23","1000","008",-,"160",-,-,"06000",SCT007 BKN055 OVC130,NO_SIGNIFICANT_CHANGES,
"2025-07-16 05:31:00","20250716","05:30:00",METAR,"METAR RKSI 152030Z 15007KT 5000 -RA SCT007 OVC130 23/23 Q1000
          NOSIG=",MANNED,NORMAL,OPERATIONAL,"23","23","1000","007",-,"150",-,-,"05000",SCT007 OVC130,NO_SIGNIFICANT_CHANGES,
"2025-07-16 05:41:00","20250716","05:30:00",METAR,"METAR RKSI 152030Z 15007KT 5000 -RA SCT007 OVC130 23/23 Q1000
          NOSIG=",MANNED,NORMAL,OPERATIONAL,"23","23","1000","007",-,"150",-,-,"05000",SCT007 OVC130,NO_SIGNIFICANT_CHANGES,
"2025-07-16 05:51:00","20250716","05:30:00",METAR,"METAR RKSI 152030Z 15007KT 5000 -RA SCT007 OVC130 23/23 Q1000
          NOSIG=",MANNED,NORMAL,OPERATIONAL,"23","23","1000","007",-,"150",-,-,"05000",SCT007 OVC130,NO_SIGNIFICANT_CHANGES,
"2025-07-16 06:01:00","20250716","06:00:00",METAR,"METAR RKSI 152100Z 14006KT 4000 -RA BKN006 OVC130 23/23 Q1000
          NOSIG=",MANNED,NORMAL,OPERATIONAL,"23","23","1000","006",-,"140",-,-,"04000",BKN006 OVC130,NO_SIGNIFICANT_CHANGES,
"2025-07-16 06:11:00","20250716","06:00:00",METAR,"METAR RKSI 152100Z 14006KT 4000 -RA BKN006 OVC130 23/23 Q1000
          NOSIG=",MANNED,NORMAL,OPERATIONAL,"23","23","1000","006",-,"140",-,-,"04000",BKN006 OVC130,NO_SIGNIFICANT_CHANGES,
"2025-07-16 06:21:00","20250716","06:00:00",METAR,"METAR RKSI 152100Z 14006KT 4000 -RA BKN006 OVC130 23/23 Q1000
          NOSIG=",MANNED,NORMAL,OPERATIONAL,"23","23","1000","006",-,"140",-,-,"04000",BKN006 OVC130,NO_SIGNIFICANT_CHANGES,
"2025-07-16 06:31:00","20250716","06:30:00",METAR,"METAR RKSI 152130Z 22007KT 200V260 5000 -RA BKN006 OVC080 22/21
          Q1001 NOSIG=",MANNED,NORMAL,OPERATIONAL,"22","21","1001","007",-,"220","200","260","05000",BKN006 OVC080,NO_SIGNIFICANT_CHANGES,
"2025-07-16 06:41:00","20250716","06:30:00",METAR,"METAR RKSI 152130Z 22007KT 200V260 5000 -RA BKN006 OVC080 22/21
          Q1001 NOSIG=",MANNED,NORMAL,OPERATIONAL,"22","21","1001","007",-,"220","200","260","05000",BKN006 OVC080,NO_SIGNIFICANT_CHANGES,
"2025-07-16 06:51:00","20250716","06:30:00",METAR,"METAR RKSI 152130Z 22007KT 200V260 5000 -RA BKN006 OVC080 22/21
          Q1001 NOSIG=",MANNED,NORMAL,OPERATIONAL,"22","21","1001","007",-,"220","200","260","05000",BKN006 OVC080,NO_SIGNIFICANT_CHANGES,
"2025-07-16 07:01:00","20250716","07:00:00",METAR,"METAR RKSI 152200Z 26009KT 5000 -RA BKN010 BKN050 OVC080 22/19
          Q1002 NOSIG=",MANNED,NORMAL,OPERATIONAL,"22","19","1002","009",-,"260",-,-,"05000",BKN010 BKN050 OVC080,NO_SIGNIFICANT_CHANGES,
"2025-07-16 07:11:00","20250716","07:00:00",METAR,"METAR RKSI 152200Z 26009KT 5000 -RA BKN010 BKN050 OVC080 22/19
          Q1002 NOSIG=",MANNED,NORMAL,OPERATIONAL,"22","19","1002","009",-,"260",-,-,"05000",BKN010 BKN050 OVC080,NO_SIGNIFICANT_CHANGES,
"2025-07-16 07:21:00","20250716","07:00:00",METAR,"METAR RKSI 152200Z 26009KT 5000 -RA BKN010 BKN050 OVC080 22/19
          Q1002 NOSIG=",MANNED,NORMAL,OPERATIONAL,"22","19","1002","009",-,"260",-,-,"05000",BKN010 BKN050 OVC080,NO_SIGNIFICANT_CHANGES,
"2025-07-16 07:31:01","20250716","07:30:00",METAR,"METAR RKSI 152230Z 04002KT 9999 -RA SCT025 BKN050 22/19 Q1001
          NOSIG=",MANNED,NORMAL,OPERATIONAL,"22","19","1001","002",-,"40",-,-,"10000",SCT025 BKN050,NO_SIGNIFICANT_CHANGES,
"2025-07-16 07:41:00","20250716","07:30:00",METAR,"METAR RKSI 152230Z 04002KT 9999 -RA SCT025 BKN050 22/19 Q1001
          NOSIG=",MANNED,NORMAL,OPERATIONAL,"22","19","1001","002",-,"40",-,-,"10000",SCT025 BKN050,NO_SIGNIFICANT_CHANGES,
"2025-07-16 07:51:00","20250716","07:30:00",METAR,"METAR RKSI 152230Z 04002KT 9999 -RA SCT025 BKN050 22/19 Q1001
          NOSIG=",MANNED,NORMAL,OPERATIONAL,"22","19","1001","002",-,"40",-,-,"10000",SCT025 BKN050,NO_SIGNIFICANT_CHANGES,
"2025-07-16 08:01:00","20250716","08:00:00",METAR,"METAR RKSI 152300Z 23005KT 180V270 9999 -RA SCT020 BKN070 23/20
          Q1002 NOSIG=",MANNED,NORMAL,OPERATIONAL,"23","20","1002","005",-,"230","180","270","10000",SCT020 BKN070,NO_SIGNIFICANT_CHANGES,
"2025-07-16 08:11:00","20250716","08:00:00",METAR,"METAR RKSI 152300Z 23005KT 180V270 9999 -RA SCT020 BKN070 23/20
          Q1002 NOSIG=",MANNED,NORMAL,OPERATIONAL,"23","20","1002","005",-,"230","180","270","10000",SCT020 BKN070,NO_SIGNIFICANT_CHANGES,
"2025-07-16 08:21:00","20250716","08:00:00",METAR,"METAR RKSI 152300Z 23005KT 180V270 9999 -RA SCT020 BKN070 23/20
          Q1002 NOSIG=",MANNED,NORMAL,OPERATIONAL,"23","20","1002","005",-,"230","180","270","10000",SCT020 BKN070,NO_SIGNIFICANT_CHANGES,
"2025-07-16 08:31:00","20250716","08:30:00",METAR,"METAR RKSI 152330Z 13005KT 100V170 9999 -RA SCT020 BKN040 22/21
          Q1001 NOSIG=",MANNED,NORMAL,OPERATIONAL,"22","21","1001","005",-,"130","100","170","10000",SCT020 BKN040,NO_SIGNIFICANT_CHANGES,
"2025-07-16 08:41:00","20250716","08:30:00",METAR,"METAR RKSI 152330Z 13005KT 100V170 9999 -RA SCT020 BKN040 22/21
          Q1001 NOSIG=",MANNED,NORMAL,OPERATIONAL,"22","21","1001","005",-,"130","100","170","10000",SCT020 BKN040,NO_SIGNIFICANT_CHANGES,
"2025-07-16 08:51:00","20250716","08:30:00",METAR,"METAR RKSI 152330Z 13005KT 100V170 9999 -RA SCT020 BKN040 22/21
          Q1001 NOSIG=",MANNED,NORMAL,OPERATIONAL,"22","21","1001","005",-,"130","100","170","10000",SCT020 BKN040,NO_SIGNIFICANT_CHANGES,
"2025-07-16 09:01:00","20250716","09:00:00",METAR,"METAR RKSI 160000Z 12003KT 100V160 9999 -RA SCT012 BKN040
          OVC065 22/20 Q1002 NOSIG=",MANNED,NORMAL,OPERATIONAL,"22","20","1002","003",-,"120","100","160","10000",SCT012 BKN040 OVC065,NO_SIGNIFICANT_CHANGES,
"2025-07-16 09:11:00","20250716","09:00:00",METAR,"METAR RKSI 160000Z 13003KT 100V170 9999 -RA SCT012 BKN045
          OVC065 22/21 Q1002 NOSIG=",MANNED,NORMAL,OPERATIONAL,"22","21","1002","003",-,"130","100","170","10000",SCT012 BKN045 OVC065,NO_SIGNIFICANT_CHANGES,
"2025-07-16 09:21:00","20250716","09:00:00",METAR,"METAR RKSI 160000Z 13003KT 100V170 9999 -RA SCT012 BKN045
          OVC065 22/21 Q1002 NOSIG=",MANNED,NORMAL,OPERATIONAL,"22","21","1002","003",-,"130","100","170","10000",SCT012 BKN045 OVC065,NO_SIGNIFICANT_CHANGES,
"2025-07-16 09:31:00","20250716","09:30:00",METAR,"METAR RKSI 160030Z 17003KT 120V240 9999 -RA SCT013 BKN045
          OVC065 23/21 Q1002 NOSIG=",MANNED,NORMAL,OPERATIONAL,"23","21","1002","003",-,"170","120","240","10000",SCT013 BKN045 OVC065,NO_SIGNIFICANT_CHANGES,
"2025-07-16 09:41:00","20250716","09:30:00",METAR,"METAR RKSI 160030Z 17003KT 120V240 9999 -RA SCT013 BKN045
          OVC065 23/21 Q1002 NOSIG=",MANNED,NORMAL,OPERATIONAL,"23","21","1002","003",-,"170","120","240","10000",SCT013 BKN045 OVC065,NO_SIGNIFICANT_CHANGES,
"2025-07-16 09:51:00","20250716","09:30:00",METAR,"METAR RKSI 160030Z 17003KT 120V240 9999 -RA SCT013 BKN045
          OVC065 23/21 Q1002 NOSIG=",MANNED,NORMAL,OPERATIONAL,"23","21","1002","003",-,"170","120","240","10000",SCT013 BKN045 OVC065,NO_SIGNIFICANT_CHANGES,
"2025-07-16 10:01:00","20250716","10:00:00",METAR,"METAR RKSI 160100Z 13005KT 9999 -RA FEW012 BKN045 OVC065 23/21
          Q1002 NOSIG=",MANNED,NORMAL,OPERATIONAL,"23","21","1002","005",-,"130",-,-,"10000",FEW012 BKN045 OVC065,NO_SIGNIFICANT_CHANGES,
"2025-07-16 10:11:00","20250716","10:00:00",METAR,"METAR RKSI 160100Z 13005KT 9999 -RA FEW012 BKN045 OVC065 23/21
          Q1002 NOSIG=",MANNED,NORMAL,OPERATIONAL,"23","21","1002","005",-,"130",-,-,"10000",FEW012 BKN045 OVC065,NO_SIGNIFICANT_CHANGES,
"2025-07-16 10:21:00","20250716","10:00:00",METAR,"METAR RKSI 160100Z 13005KT 9999 -RA FEW012 BKN045 OVC065 23/21
          Q1002 NOSIG=",MANNED,NORMAL,OPERATIONAL,"23","21","1002","005",-,"130",-,-,"10000",FEW012 BKN045 OVC065,NO_SIGNIFICANT_CHANGES,
"2025-07-16 10:31:00","20250716","10:30:00",METAR,"METAR RKSI 160130Z 14005KT 110V170 9999 BKN045 OVC065 24/22
          Q1002 NOSIG=",MANNED,NORMAL,OPERATIONAL,"24","22","1002","005",-,"140","110","170","10000",BKN045 OVC065,NO_SIGNIFICANT_CHANGES,
"2025-07-16 10:41:00","20250716","10:30:00",METAR,"METAR RKSI 160130Z 14005KT 110V170 9999 BKN045 OVC065 24/22
          Q1002 NOSIG=",MANNED,NORMAL,OPERATIONAL,"24","22","1002","005",-,"140","110","170","10000",BKN045 OVC065,NO_SIGNIFICANT_CHANGES,
"2025-07-16 10:51:00","20250716","10:30:00",METAR,"METAR RKSI 160130Z 14005KT 110V170 9999 BKN045 OVC065 24/22
          Q1002 NOSIG=",MANNED,NORMAL,OPERATIONAL,"24","22","1002","005",-,"140","110","170","10000",BKN045 OVC065,NO_SIGNIFICANT_CHANGES,
"2025-07-16 11:01:00","20250716","11:00:00",METAR,"METAR RKSI 160200Z 19010KT 160V220 8000 -RA SCT012 BKN025
          OVC065 23/21 Q1002 NOSIG=",MANNED,NORMAL,OPERATIONAL,"23","21","1002","010",-,"190","160","220","08000",SCT012 BKN025 OVC065,NO_SIGNIFICANT_CHANGES,
"2025-07-16 11:11:00","20250716","11:00:00",METAR,"METAR RKSI 160200Z 19010KT 160V220 8000 -RA SCT012 BKN025
          OVC065 23/21 Q1002 NOSIG=",MANNED,NORMAL,OPERATIONAL,"23","21","1002","010",-,"190","160","220","08000",SCT012 BKN025 OVC065,NO_SIGNIFICANT_CHANGES,
"2025-07-16 11:21:00","20250716","11:00:00",METAR,"METAR RKSI 160200Z 19010KT 160V220 8000 -RA SCT012 BKN025
          OVC065 23/21 Q1002 NOSIG=",MANNED,NORMAL,OPERATIONAL,"23","21","1002","010",-,"190","160","220","08000",SCT012 BKN025 OVC065,NO_SIGNIFICANT_CHANGES,
"2025-07-16 11:31:00","20250716","11:30:00",METAR,"METAR RKSI 160230Z 15004KT 9999 -RA SCT012 BKN025 OVC060 23/21
          Q1002 NOSIG=",MANNED,NORMAL,OPERATIONAL,"23","21","1002","004",-,"150",-,-,"10000",SCT012 BKN025 OVC060,NO_SIGNIFICANT_CHANGES,
"2025-07-16 11:41:00","20250716","11:30:00",METAR,"METAR RKSI 160230Z 15004KT 9999 -RA SCT012 BKN025 OVC060 23/21
          Q1002 NOSIG=",MANNED,NORMAL,OPERATIONAL,"23","21","1002","004",-,"150",-,-,"10000",SCT012 BKN025 OVC060,NO_SIGNIFICANT_CHANGES,
"2025-07-16 11:51:00","20250716","11:30:00",METAR,"METAR RKSI 160230Z 15004KT 9999 -RA SCT012 BKN025 OVC060 23/21
          Q1002 NOSIG=",MANNED,NORMAL,OPERATIONAL,"23","21","1002","004",-,"150",-,-,"10000",SCT012 BKN025 OVC060,NO_SIGNIFICANT_CHANGES,
"2025-07-16 12:01:00","20250716","12:00:00",METAR,"METAR RKSI 160300Z 16006KT 9999 -RA BKN025 OVC065 23/22 Q1002
          NOSIG=",MANNED,NORMAL,OPERATIONAL,"23","22","1002","006",-,"160",-,-,"10000",BKN025 OVC065,NO_SIGNIFICANT_CHANGES,
"2025-07-16 12:11:00","20250716","12:00:00",METAR,"METAR RKSI 160300Z 16006KT 9999 -RA BKN025 OVC065 23/22 Q1002
          NOSIG=",MANNED,NORMAL,OPERATIONAL,"23","22","1002","006",-,"160",-,-,"10000",BKN025 OVC065,NO_SIGNIFICANT_CHANGES,
"2025-07-16 12:21:00","20250716","12:00:00",METAR,"METAR RKSI 160300Z 16006KT 9999 -RA BKN025 OVC065 23/22 Q1002
          NOSIG=",MANNED,NORMAL,OPERATIONAL,"23","22","1002","006",-,"160",-,-,"10000",BKN025 OVC065,NO_SIGNIFICANT_CHANGES,
"2025-07-16 12:31:00","20250716","12:30:00",METAR,"METAR RKSI 160330Z 17007KT 8000 -RA BKN020 OVC065 22/21 Q1002
          NOSIG=",MANNED,NORMAL,OPERATIONAL,"22","21","1002","007",-,"170",-,-,"08000",BKN020 OVC065,NO_SIGNIFICANT_CHANGES,
"2025-07-16 12:41:00","20250716","12:30:00",METAR,"METAR RKSI 160330Z 17007KT 8000 -RA BKN020 OVC065 22/21 Q1002
          NOSIG=",MANNED,NORMAL,OPERATIONAL,"22","21","1002","007",-,"170",-,-,"08000",BKN020 OVC065,NO_SIGNIFICANT_CHANGES,
"2025-07-16 12:51:00","20250716","12:30:00",METAR,"METAR RKSI 160330Z 17007KT 8000 -RA BKN020 OVC065 22/21 Q1002
          NOSIG=",MANNED,NORMAL,OPERATIONAL,"22","21","1002","007",-,"170",-,-,"08000",BKN020 OVC065,NO_SIGNIFICANT_CHANGES,
"2025-07-16 13:01:00","20250716","13:00:00",METAR,"METAR RKSI 160400Z 16008KT 9000 -RA SCT017 BKN025 OVC065 23/21
          Q1002 NOSIG=",MANNED,NORMAL,OPERATIONAL,"23","21","1002","008",-,"160",-,-,"09000",SCT017 BKN025 OVC065,NO_SIGNIFICANT_CHANGES,
"2025-07-16 13:11:00","20250716","13:00:00",METAR,"METAR RKSI 160400Z 16008KT 9000 -RA SCT017 BKN025 OVC065 23/21
          Q1002 NOSIG=",MANNED,NORMAL,OPERATIONAL,"23","21","1002","008",-,"160",-,-,"09000",SCT017 BKN025 OVC065,NO_SIGNIFICANT_CHANGES,
"2025-07-16 13:21:00","20250716","13:00:00",METAR,"METAR RKSI 160400Z 16008KT 9000 -RA SCT017 BKN025 OVC065 23/21
          Q1002 NOSIG=",MANNED,NORMAL,OPERATIONAL,"23","21","1002","008",-,"160",-,-,"09000",SCT017 BKN025 OVC065,NO_SIGNIFICANT_CHANGES,
"2025-07-16 13:31:00","20250716","13:30:00",METAR,"METAR RKSI 160430Z 15010KT 8000 -RA SCT017 BKN025 OVC065 23/21
          Q1002 NOSIG=",MANNED,NORMAL,OPERATIONAL,"23","21","1002","010",-,"150",-,-,"08000",SCT017 BKN025 OVC065,NO_SIGNIFICANT_CHANGES,
"2025-07-16 13:41:00","20250716","13:30:00",METAR,"METAR RKSI 160430Z 15010KT 8000 -RA SCT017 BKN025 OVC065 23/21
          Q1002 NOSIG=",MANNED,NORMAL,OPERATIONAL,"23","21","1002","010",-,"150",-,-,"08000",SCT017 BKN025 OVC065,NO_SIGNIFICANT_CHANGES,
"2025-07-16 13:51:00","20250716","13:30:00",METAR,"METAR RKSI 160430Z 15010KT 8000 -RA SCT017 BKN025 OVC065 23/21
          Q1002 NOSIG=",MANNED,NORMAL,OPERATIONAL,"23","21","1002","010",-,"150",-,-,"08000",SCT017 BKN025 OVC065,NO_SIGNIFICANT_CHANGES,
"2025-07-16 14:01:00","20250716","14:00:00",METAR,"METAR RKSI 160500Z 13011KT 7000 -RA SCT011 BKN025 OVC065 23/21
          Q1001 NOSIG=",MANNED,NORMAL,OPERATIONAL,"23","21","1001","011",-,"130",-,-,"07000",SCT011 BKN025 OVC065,NO_SIGNIFICANT_CHANGES,
"2025-07-16 14:11:00","20250716","14:00:00",METAR,"METAR RKSI 160500Z 13011KT 7000 -RA SCT011 BKN025 OVC065 23/21
          Q1001 NOSIG=",MANNED,NORMAL,OPERATIONAL,"23","21","1001","011",-,"130",-,-,"07000",SCT011 BKN025 OVC065,NO_SIGNIFICANT_CHANGES,
"2025-07-16 14:21:00","20250716","14:00:00",METAR,"METAR RKSI 160500Z 13011KT 7000 -RA SCT011 BKN025 OVC065 23/21
          Q1001 NOSIG=",MANNED,NORMAL,OPERATIONAL,"23","21","1001","011",-,"130",-,-,"07000",SCT011 BKN025 OVC065,NO_SIGNIFICANT_CHANGES,
"2025-07-16 14:31:00","20250716","14:30:00",METAR,"METAR RKSI 160530Z 13011KT 5000 -RA SCT009 BKN025 OVC065 23/21
          Q1001 NOSIG=",MANNED,NORMAL,OPERATIONAL,"23","21","1001","011",-,"130",-,-,"05000",SCT009 BKN025 OVC065,NO_SIGNIFICANT_CHANGES,
"2025-07-16 14:41:00","20250716","14:30:00",METAR,"METAR RKSI 160530Z 13011KT 5000 -RA SCT009 BKN025 OVC065 23/21
          Q1001 NOSIG=",MANNED,NORMAL,OPERATIONAL,"23","21","1001","011",-,"130",-,-,"05000",SCT009 BKN025 OVC065,NO_SIGNIFICANT_CHANGES,
"2025-07-16 14:51:00","20250716","14:30:00",METAR,"METAR RKSI 160530Z 13011KT 5000 -RA SCT009 BKN025 OVC065 23/21
          Q1001 NOSIG=",MANNED,NORMAL,OPERATIONAL,"23","21","1001","011",-,"130",-,-,"05000",SCT009 BKN025 OVC065,NO_SIGNIFICANT_CHANGES,
"2025-07-16 15:01:00","20250716","15:00:00",METAR,"METAR RKSI 160600Z 15013KT 5000 -RA SCT008 BKN020 OVC065 22/21
          Q1000 NOSIG=",MANNED,NORMAL,OPERATIONAL,"22","21","1000","013",-,"150",-,-,"05000",SCT008 BKN020 OVC065,NO_SIGNIFICANT_CHANGES,
"2025-07-16 15:11:00","20250716","15:00:00",METAR,"METAR RKSI 160600Z 15013KT 5000 -RA SCT008 BKN020 OVC065 22/21
          Q1000 NOSIG=",MANNED,NORMAL,OPERATIONAL,"22","21","1000","013",-,"150",-,-,"05000",SCT008 BKN020 OVC065,NO_SIGNIFICANT_CHANGES,
"2025-07-16 15:21:00","20250716","15:00:00",METAR,"METAR RKSI 160600Z 15013KT 5000 -RA SCT008 BKN020 OVC065 22/21
          Q1000 NOSIG=",MANNED,NORMAL,OPERATIONAL,"22","21","1000","013",-,"150",-,-,"05000",SCT008 BKN020 OVC065,NO_SIGNIFICANT_CHANGES,
"2025-07-16 15:31:00","20250716","15:30:00",METAR,"METAR RKSI 160630Z 14014KT 5000 RA SCT007 BKN020 OVC060 22/21
          Q1001 NOSIG=",MANNED,NORMAL,OPERATIONAL,"22","21","1001","014",-,"140",-,-,"05000",SCT007 BKN020 OVC060,NO_SIGNIFICANT_CHANGES,
"2025-07-16 15:41:00","20250716","15:30:00",METAR,"METAR RKSI 160630Z 14014KT 5000 RA SCT007 BKN020 OVC060 22/21
          Q1001 NOSIG=",MANNED,NORMAL,OPERATIONAL,"22","21","1001","014",-,"140",-,-,"05000",SCT007 BKN020 OVC060,NO_SIGNIFICANT_CHANGES,
"2025-07-16 15:51:00","20250716","15:30:00",METAR,"METAR RKSI 160630Z 14014KT 5000 RA SCT007 BKN020 OVC060 22/21
          Q1001 NOSIG=",MANNED,NORMAL,OPERATIONAL,"22","21","1001","014",-,"140",-,-,"05000",SCT007 BKN020 OVC060,NO_SIGNIFICANT_CHANGES,
"2025-07-16 16:01:00","20250716","16:00:00",METAR,"METAR RKSI 160700Z 14013KT 5000 RA SCT006 BKN020 OVC070 22/22
          Q1000 NOSIG=",MANNED,NORMAL,OPERATIONAL,"22","22","1000","013",-,"140",-,-,"05000",SCT006 BKN020 OVC070,NO_SIGNIFICANT_CHANGES,
"2025-07-16 16:11:00","20250716","16:00:00",METAR,"METAR RKSI 160700Z 14013KT 5000 RA SCT006 BKN020 OVC070 22/22
          Q1000 NOSIG=",MANNED,NORMAL,OPERATIONAL,"22","22","1000","013",-,"140",-,-,"05000",SCT006 BKN020 OVC070,NO_SIGNIFICANT_CHANGES,
"2025-07-16 16:21:00","20250716","16:00:00",METAR,"METAR RKSI 160700Z 14013KT 5000 RA SCT006 BKN020 OVC070 22/22
          Q1000 NOSIG=",MANNED,NORMAL,OPERATIONAL,"22","22","1000","013",-,"140",-,-,"05000",SCT006 BKN020 OVC070,NO_SIGNIFICANT_CHANGES,
"2025-07-16 16:31:00","20250716","16:30:00",METAR,"METAR RKSI 160730Z 13012G23KT 5000 RA SCT006 BKN020 OVC070
          22/22 Q1001 NOSIG=",MANNED,NORMAL,OPERATIONAL,"22","22","1001","012","023","130",-,-,"05000",SCT006 BKN020 OVC070,NO_SIGNIFICANT_CHANGES,
"2025-07-16 16:41:00","20250716","16:30:00",METAR,"METAR RKSI 160730Z 13012G23KT 5000 RA SCT006 BKN020 OVC070
          22/22 Q1001 NOSIG=",MANNED,NORMAL,OPERATIONAL,"22","22","1001","012","023","130",-,-,"05000",SCT006 BKN020 OVC070,NO_SIGNIFICANT_CHANGES,
"2025-07-16 16:51:00","20250716","16:30:00",METAR,"METAR RKSI 160730Z 13012G23KT 5000 RA SCT006 BKN020 OVC070
          22/22 Q1001 NOSIG=",MANNED,NORMAL,OPERATIONAL,"22","22","1001","012","023","130",-,-,"05000",SCT006 BKN020 OVC070,NO_SIGNIFICANT_CHANGES,
"2025-07-16 17:01:00","20250716","17:00:00",METAR,"METAR RKSI 160800Z 14011KT 6000 RA SCT006 BKN030 OVC070 22/22
          Q1000 NOSIG=",MANNED,NORMAL,OPERATIONAL,"22","22","1000","011",-,"140",-,-,"06000",SCT006 BKN030 OVC070,NO_SIGNIFICANT_CHANGES,
"2025-07-16 17:11:00","20250716","17:00:00",METAR,"METAR RKSI 160800Z 14011KT 6000 RA SCT006 BKN030 OVC070 22/22
          Q1000 NOSIG=",MANNED,NORMAL,OPERATIONAL,"22","22","1000","011",-,"140",-,-,"06000",SCT006 BKN030 OVC070,NO_SIGNIFICANT_CHANGES,
"2025-07-16 17:21:00","20250716","17:00:00",METAR,"METAR RKSI 160800Z 14011KT 6000 RA SCT006 BKN030 OVC070 22/22
          Q1000 NOSIG=",MANNED,NORMAL,OPERATIONAL,"22","22","1000","011",-,"140",-,-,"06000",SCT006 BKN030 OVC070,NO_SIGNIFICANT_CHANGES,
"2025-07-16 17:31:00","20250716","17:30:00",METAR,"METAR RKSI 160830Z 13016KT 6000 RA SCT005 BKN020 OVC070 22/21
          Q1000 WS R15R R33L R15L R33R NOSIG=",MANNED,NORMAL,OPERATIONAL,"22","21","1000","016",-,"130",-,-,"06000",SCT005 BKN020 OVC070,NO_SIGNIFICANT_CHANGES,
"2025-07-16 17:41:00","20250716","17:30:00",METAR,"METAR RKSI 160830Z 13016KT 6000 RA SCT005 BKN020 OVC070 22/21
          Q1000 WS R15R R33L R15L R33R NOSIG=",MANNED,NORMAL,OPERATIONAL,"22","21","1000","016",-,"130",-,-,"06000",SCT005 BKN020 OVC070,NO_SIGNIFICANT_CHANGES,
"2025-07-16 17:51:00","20250716","17:30:00",METAR,"METAR RKSI 160830Z 13016KT 6000 RA SCT005 BKN020 OVC070 22/21
          Q1000 WS R15R R33L R15L R33R NOSIG=",MANNED,NORMAL,OPERATIONAL,"22","21","1000","016",-,"130",-,-,"06000",SCT005 BKN020 OVC070,NO_SIGNIFICANT_CHANGES,
"2025-07-16 18:01:00","20250716","18:00:00",METAR,"METAR RKSI 160900Z 13018KT 5000 RA SCT005 BKN025 OVC070 22/22
          Q0999 NOSIG=",MANNED,NORMAL,OPERATIONAL,"22","22","0999","018",-,"130",-,-,"05000",SCT005 BKN025 OVC070,NO_SIGNIFICANT_CHANGES,
"2025-07-16 18:11:00","20250716","18:00:00",METAR,"METAR RKSI 160900Z 13018KT 5000 RA SCT005 BKN025 OVC070 22/22
          Q0999 NOSIG=",MANNED,NORMAL,OPERATIONAL,"22","22","0999","018",-,"130",-,-,"05000",SCT005 BKN025 OVC070,NO_SIGNIFICANT_CHANGES,
"2025-07-16 18:21:00","20250716","18:00:00",METAR,"METAR RKSI 160900Z 13018KT 5000 RA SCT005 BKN025 OVC070 22/22
          Q0999 NOSIG=",MANNED,NORMAL,OPERATIONAL,"22","22","0999","018",-,"130",-,-,"05000",SCT005 BKN025 OVC070,NO_SIGNIFICANT_CHANGES,
"2025-07-16 18:31:00","20250716","18:30:00",METAR,"METAR RKSI 160930Z 13016KT 2000 +RA SCT004 BKN020 OVC060 22/22
          Q0999 NOSIG=",MANNED,NORMAL,OPERATIONAL,"22","22","0999","016",-,"130",-,-,"02000",SCT004 BKN020 OVC060,NO_SIGNIFICANT_CHANGES,
"2025-07-16 18:41:00","20250716","18:30:00",METAR,"METAR RKSI 160930Z 13016KT 2000 +RA SCT004 BKN020 OVC060 22/22
          Q0999 NOSIG=",MANNED,NORMAL,OPERATIONAL,"22","22","0999","016",-,"130",-,-,"02000",SCT004 BKN020 OVC060,NO_SIGNIFICANT_CHANGES,
"2025-07-16 18:51:00","20250716","18:30:00",METAR,"METAR RKSI 160930Z 13016KT 2000 +RA SCT004 BKN020 OVC060 22/22
          Q0999 NOSIG=",MANNED,NORMAL,OPERATIONAL,"22","22","0999","016",-,"130",-,-,"02000",SCT004 BKN020 OVC060,NO_SIGNIFICANT_CHANGES,
"2025-07-16 19:01:00","20250716","19:00:00",METAR,"METAR RKSI 161000Z 13014G25KT 4000 RA SCT005 BKN020 OVC065
          22/22 Q1000 NOSIG=",MANNED,NORMAL,OPERATIONAL,"22","22","1000","014","025","130",-,-,"04000",SCT005 BKN020 OVC065,NO_SIGNIFICANT_CHANGES,
"2025-07-16 19:11:00","20250716","19:00:00",METAR,"METAR RKSI 161000Z 13014G25KT 4000 RA SCT005 BKN020 OVC065
          22/22 Q1000 NOSIG=",MANNED,NORMAL,OPERATIONAL,"22","22","1000","014","025","130",-,-,"04000",SCT005 BKN020 OVC065,NO_SIGNIFICANT_CHANGES,
"2025-07-16 19:21:00","20250716","19:00:00",METAR,"METAR RKSI 161000Z 13014G25KT 4000 RA SCT005 BKN020 OVC065
          22/22 Q1000 NOSIG=",MANNED,NORMAL,OPERATIONAL,"22","22","1000","014","025","130",-,-,"04000",SCT005 BKN020 OVC065,NO_SIGNIFICANT_CHANGES,
"2025-07-16 19:31:00","20250716","19:30:00",METAR,"METAR RKSI 161030Z 15012KT 8000 -RA SCT007 BKN020 OVC065 22/22
          Q1000 NOSIG=",MANNED,NORMAL,OPERATIONAL,"22","22","1000","012",-,"150",-,-,"08000",SCT007 BKN020 OVC065,NO_SIGNIFICANT_CHANGES,
"2025-07-16 19:41:00","20250716","19:30:00",METAR,"METAR RKSI 161030Z 15012KT 8000 -RA SCT007 BKN020 OVC065 22/22
          Q1000 NOSIG=",MANNED,NORMAL,OPERATIONAL,"22","22","1000","012",-,"150",-,-,"08000",SCT007 BKN020 OVC065,NO_SIGNIFICANT_CHANGES,
"2025-07-16 19:51:00","20250716","19:30:00",METAR,"METAR RKSI 161030Z 15012KT 8000 -RA SCT007 BKN020 OVC065 22/22
          Q1000 NOSIG=",MANNED,NORMAL,OPERATIONAL,"22","22","1000","012",-,"150",-,-,"08000",SCT007 BKN020 OVC065,NO_SIGNIFICANT_CHANGES,
"2025-07-16 20:01:00","20250716","20:00:00",METAR,"METAR RKSI 161100Z 16013KT 6000 -RA SCT010 BKN020 OVC065 22/22
          Q1000 NOSIG=",MANNED,NORMAL,OPERATIONAL,"22","22","1000","013",-,"160",-,-,"06000",SCT010 BKN020 OVC065,NO_SIGNIFICANT_CHANGES,
"2025-07-16 20:11:00","20250716","20:00:00",METAR,"METAR RKSI 161100Z 16013KT 6000 -RA SCT010 BKN020 OVC065 22/22
          Q1000 NOSIG=",MANNED,NORMAL,OPERATIONAL,"22","22","1000","013",-,"160",-,-,"06000",SCT010 BKN020 OVC065,NO_SIGNIFICANT_CHANGES,
"2025-07-16 20:21:00","20250716","20:00:00",METAR,"METAR RKSI 161100Z 16013KT 6000 -RA SCT010 BKN020 OVC065 22/22
          Q1000 NOSIG=",MANNED,NORMAL,OPERATIONAL,"22","22","1000","013",-,"160",-,-,"06000",SCT010 BKN020 OVC065,NO_SIGNIFICANT_CHANGES,
"2025-07-16 20:31:00","20250716","20:30:00",METAR,"METAR RKSI 161130Z 12009KT 8000 -RA SCT010 BKN025 OVC070 23/22
          Q1001 NOSIG=",MANNED,NORMAL,OPERATIONAL,"23","22","1001","009",-,"120",-,-,"08000",SCT010 BKN025 OVC070,NO_SIGNIFICANT_CHANGES,
"2025-07-16 20:41:00","20250716","20:30:00",METAR,"METAR RKSI 161130Z 12009KT 8000 -RA SCT010 BKN025 OVC070 23/22
          Q1001 NOSIG=",MANNED,NORMAL,OPERATIONAL,"23","22","1001","009",-,"120",-,-,"08000",SCT010 BKN025 OVC070,NO_SIGNIFICANT_CHANGES,
"2025-07-16 20:51:00","20250716","20:30:00",METAR,"METAR RKSI 161130Z 12009KT 8000 -RA SCT010 BKN025 OVC070 23/22
          Q1001 NOSIG=",MANNED,NORMAL,OPERATIONAL,"23","22","1001","009",-,"120",-,-,"08000",SCT010 BKN025 OVC070,NO_SIGNIFICANT_CHANGES,
"2025-07-16 21:01:00","20250716","21:00:00",METAR,"METAR RKSI 161200Z 11007KT 050V140 8000 -RA SCT010 BKN025
          OVC070 23/22 Q1001 NOSIG=",MANNED,NORMAL,OPERATIONAL,"23","22","1001","007",-,"110","050","140","08000",SCT010 BKN025 OVC070,NO_SIGNIFICANT_CHANGES,
"2025-07-17 14:31:00","20250717","14:30:00",METAR,METAR RKSI 170530Z 13013KT 9999 FEW010 BKN020 24/22 Q1003 NOSIG=,MANNED,NORMAL,OPERATIONAL,"24","22","1003","013",-,"130",-,-,"10000",FEW010 BKN020,NO_SIGNIFICANT_CHANGES,
"2025-07-16 21:11:00","20250716","21:00:00",METAR,"METAR RKSI 161200Z 11007KT 050V140 8000 -RA SCT010 BKN025
          OVC070 23/22 Q1001 NOSIG=",MANNED,NORMAL,OPERATIONAL,"23","22","1001","007",-,"110","050","140","08000",SCT010 BKN025 OVC070,NO_SIGNIFICANT_CHANGES,
"2025-07-16 21:21:00","20250716","21:00:00",METAR,"METAR RKSI 161200Z 11007KT 050V140 8000 -RA SCT010 BKN025
          OVC070 23/22 Q1001 NOSIG=",MANNED,NORMAL,OPERATIONAL,"23","22","1001","007",-,"110","050","140","08000",SCT010 BKN025 OVC070,NO_SIGNIFICANT_CHANGES,
"2025-07-16 21:31:00","20250716","21:30:00",METAR,"METAR RKSI 161230Z 05005KT 8000 -RA SCT008CB BKN025 OVC070
          22/22 Q1001 NOSIG RMK CB NW MOV N=",MANNED,NORMAL,OPERATIONAL,"22","22","1001","005",-,"50",-,-,"08000",SCT008CB BKN025 OVC070,NO_SIGNIFICANT_CHANGES,
"2025-07-16 21:41:00","20250716","21:30:00",METAR,"METAR RKSI 161230Z 05005KT 8000 -RA SCT008CB BKN025 OVC070
          22/22 Q1001 NOSIG RMK CB NW MOV N=",MANNED,NORMAL,OPERATIONAL,"22","22","1001","005",-,"50",-,-,"08000",SCT008CB BKN025 OVC070,NO_SIGNIFICANT_CHANGES,
"2025-07-17 10:01:00","20250717","10:00:00",METAR,METAR RKSI 170100Z 13013KT 9999 SCT008 BKN025 24/22 Q1003 NOSIG=,MANNED,NORMAL,OPERATIONAL,"24","22","1003","013",-,"130",-,-,"10000",SCT008 BKN025,NO_SIGNIFICANT_CHANGES,
"2025-07-17 10:11:00","20250717","10:00:00",METAR,METAR RKSI 170100Z 13013KT 9999 SCT008 BKN025 24/22 Q1003 NOSIG=,MANNED,NORMAL,OPERATIONAL,"24","22","1003","013",-,"130",-,-,"10000",SCT008 BKN025,NO_SIGNIFICANT_CHANGES,
"2025-07-17 10:21:00","20250717","10:00:00",METAR,METAR RKSI 170100Z 13013KT 9999 SCT008 BKN025 24/22 Q1003 NOSIG=,MANNED,NORMAL,OPERATIONAL,"24","22","1003","013",-,"130",-,-,"10000",SCT008 BKN025,NO_SIGNIFICANT_CHANGES,
"2025-07-17 10:31:00","20250717","10:30:00",METAR,METAR RKSI 170130Z 14012KT 9999 SCT010 BKN025 23/22 Q1003 NOSIG=,MANNED,NORMAL,OPERATIONAL,"23","22","1003","012",-,"140",-,-,"10000",SCT010 BKN025,NO_SIGNIFICANT_CHANGES,
"2025-07-17 10:41:00","20250717","10:30:00",METAR,METAR RKSI 170130Z 14012KT 9999 SCT010 BKN025 23/22 Q1003 NOSIG=,MANNED,NORMAL,OPERATIONAL,"23","22","1003","012",-,"140",-,-,"10000",SCT010 BKN025,NO_SIGNIFICANT_CHANGES,
"2025-07-17 10:51:00","20250717","10:30:00",METAR,METAR RKSI 170130Z 14012KT 9999 SCT010 BKN025 23/22 Q1003 NOSIG=,MANNED,NORMAL,OPERATIONAL,"23","22","1003","012",-,"140",-,-,"10000",SCT010 BKN025,NO_SIGNIFICANT_CHANGES,
"2025-07-17 11:01:00","20250717","11:00:00",METAR,"METAR RKSI 170200Z 14010KT 9999 SCT010 BKN025 OVC070 23/22
          Q1004 NOSIG=",MANNED,NORMAL,OPERATIONAL,"23","22","1004","010",-,"140",-,-,"10000",SCT010 BKN025 OVC070,NO_SIGNIFICANT_CHANGES,
"2025-07-17 11:11:00","20250717","11:00:00",METAR,"METAR RKSI 170200Z 14010KT 9999 -RA SCT010 BKN025 OVC070 23/22
          Q1004 NOSIG=",MANNED,NORMAL,OPERATIONAL,"23","22","1004","010",-,"140",-,-,"10000",SCT010 BKN025 OVC070,NO_SIGNIFICANT_CHANGES,
"2025-07-17 11:21:00","20250717","11:00:00",METAR,"METAR RKSI 170200Z 14010KT 9999 -RA SCT010 BKN025 OVC070 23/22
          Q1004 NOSIG=",MANNED,NORMAL,OPERATIONAL,"23","22","1004","010",-,"140",-,-,"10000",SCT010 BKN025 OVC070,NO_SIGNIFICANT_CHANGES,
"2025-07-17 11:31:00","20250717","11:30:00",METAR,"METAR RKSI 170230Z 14009KT 9999 -RA FEW017 BKN025 BKN070 24/22
          Q1003 NOSIG=",MANNED,NORMAL,OPERATIONAL,"24","22","1003","009",-,"140",-,-,"10000",FEW017 BKN025 BKN070,NO_SIGNIFICANT_CHANGES,
"2025-07-17 11:41:00","20250717","11:30:00",METAR,"METAR RKSI 170230Z 14009KT 9999 -RA VCTS FEW017 BKN025 BKN070
          24/22 Q1003 NOSIG=",MANNED,NORMAL,OPERATIONAL,"24","22","1003","009",-,"140",-,-,"10000",FEW017 BKN025 BKN070,NO_SIGNIFICANT_CHANGES,
"2025-07-17 11:51:00","20250717","11:30:00",METAR,"METAR RKSI 170230Z 14009KT 9999 -RA VCTS FEW017 BKN025 BKN070
          24/22 Q1003 NOSIG=",MANNED,NORMAL,OPERATIONAL,"24","22","1003","009",-,"140",-,-,"10000",FEW017 BKN025 BKN070,NO_SIGNIFICANT_CHANGES,
"2025-07-17 12:01:00","20250717","12:00:00",METAR,"METAR RKSI 170300Z 15011KT 9999 FEW018CB BKN025 BKN070 24/22
          Q1003 NOSIG RMK CB E MOV NE=",MANNED,NORMAL,OPERATIONAL,"24","22","1003","011",-,"150",-,-,"10000",FEW018CB BKN025 BKN070,NO_SIGNIFICANT_CHANGES,
"2025-07-17 12:11:00","20250717","12:00:00",METAR,"METAR RKSI 170300Z 15011KT 9999 FEW018 BKN025 BKN070 24/22
          Q1003 NOSIG=",MANNED,NORMAL,OPERATIONAL,"24","22","1003","011",-,"150",-,-,"10000",FEW018 BKN025 BKN070,NO_SIGNIFICANT_CHANGES,
"2025-07-17 12:21:00","20250717","12:00:00",METAR,"METAR RKSI 170300Z 15011KT 9999 FEW018 BKN025 BKN070 24/22
          Q1003 NOSIG=",MANNED,NORMAL,OPERATIONAL,"24","22","1003","011",-,"150",-,-,"10000",FEW018 BKN025 BKN070,NO_SIGNIFICANT_CHANGES,
"2025-07-17 12:31:00","20250717","12:30:00",METAR,METAR RKSI 170330Z 14012KT 9999 SCT020 BKN070 24/22 Q1003 NOSIG=,MANNED,NORMAL,OPERATIONAL,"24","22","1003","012",-,"140",-,-,"10000",SCT020 BKN070,NO_SIGNIFICANT_CHANGES,
"2025-07-17 12:41:00","20250717","12:30:00",METAR,METAR RKSI 170330Z 14011KT 9999 SCT020 BKN070 25/22 Q1003 NOSIG=,MANNED,NORMAL,OPERATIONAL,"25","22","1003","011",-,"140",-,-,"10000",SCT020 BKN070,NO_SIGNIFICANT_CHANGES,
"2025-07-17 12:51:00","20250717","12:30:00",METAR,METAR RKSI 170330Z 14011KT 9999 SCT020 BKN070 25/22 Q1003 NOSIG=,MANNED,NORMAL,OPERATIONAL,"25","22","1003","011",-,"140",-,-,"10000",SCT020 BKN070,NO_SIGNIFICANT_CHANGES,
"2025-07-17 13:01:00","20250717","13:00:00",METAR,METAR RKSI 170400Z 15012KT 9999 SCT025 BKN060 25/22 Q1003 NOSIG=,MANNED,NORMAL,OPERATIONAL,"25","22","1003","012",-,"150",-,-,"10000",SCT025 BKN060,NO_SIGNIFICANT_CHANGES,
"2025-07-17 13:11:00","20250717","13:00:00",METAR,METAR RKSI 170400Z 15012KT 9999 SCT025 BKN060 25/22 Q1003 NOSIG=,MANNED,NORMAL,OPERATIONAL,"25","22","1003","012",-,"150",-,-,"10000",SCT025 BKN060,NO_SIGNIFICANT_CHANGES,
"2025-07-17 13:21:00","20250717","13:00:00",METAR,METAR RKSI 170400Z 15012KT 9999 SCT025 BKN060 25/22 Q1003 NOSIG=,MANNED,NORMAL,OPERATIONAL,"25","22","1003","012",-,"150",-,-,"10000",SCT025 BKN060,NO_SIGNIFICANT_CHANGES,
"2025-07-17 13:31:00","20250717","13:30:00",METAR,METAR RKSI 170430Z 14013KT 9999 BKN020 25/22 Q1003 NOSIG=,MANNED,NORMAL,OPERATIONAL,"25","22","1003","013",-,"140",-,-,"10000",BKN020,NO_SIGNIFICANT_CHANGES,
"2025-07-17 13:41:00","20250717","13:30:00",METAR,METAR RKSI 170430Z 14013KT 9999 BKN018 25/22 Q1003 NOSIG=,MANNED,NORMAL,OPERATIONAL,"25","22","1003","013",-,"140",-,-,"10000",BKN018,NO_SIGNIFICANT_CHANGES,
"2025-07-17 13:51:00","20250717","13:30:00",METAR,METAR RKSI 170430Z 14013KT 9999 BKN018 25/22 Q1003 NOSIG=,MANNED,NORMAL,OPERATIONAL,"25","22","1003","013",-,"140",-,-,"10000",BKN018,NO_SIGNIFICANT_CHANGES,
"2025-07-17 14:01:00","20250717","14:00:00",METAR,METAR RKSI 170500Z 13013KT 9999 FEW010 BKN020 25/22 Q1003 NOSIG=,MANNED,NORMAL,OPERATIONAL,"25","22","1003","013",-,"130",-,-,"10000",FEW010 BKN020,NO_SIGNIFICANT_CHANGES,
"2025-07-17 14:11:00","20250717","14:00:00",METAR,METAR RKSI 170500Z 13013KT 9999 FEW010 BKN020 25/22 Q1003 NOSIG=,MANNED,NORMAL,OPERATIONAL,"25","22","1003","013",-,"130",-,-,"10000",FEW010 BKN020,NO_SIGNIFICANT_CHANGES,
"2025-07-17 14:21:00","20250717","14:00:00",METAR,METAR RKSI 170500Z 13013KT 9999 FEW010 BKN020 25/22 Q1003 NOSIG=,MANNED,NORMAL,OPERATIONAL,"25","22","1003","013",-,"130",-,-,"10000",FEW010 BKN020,NO_SIGNIFICANT_CHANGES,
"2025-07-21 10:51:00","20250721","10:30:00",METAR,METAR RKSI 210130Z 21013KT CAVOK 29/25 Q1015 NOSIG=,MANNED,NORMAL,OPERATIONAL,"29","25","1015","013",-,"210",-,-,"10000",CAVOK,NO_SIGNIFICANT_CHANGES,
"2025-07-17 14:41:00","20250717","14:30:00",METAR,METAR RKSI 170530Z 13013KT 9999 FEW010 BKN020 24/22 Q1003 NOSIG=,MANNED,NORMAL,OPERATIONAL,"24","22","1003","013",-,"130",-,-,"10000",FEW010 BKN020,NO_SIGNIFICANT_CHANGES,
"2025-07-17 14:51:00","20250717","14:30:00",METAR,METAR RKSI 170530Z 13013KT 9999 FEW010 BKN020 24/22 Q1003 NOSIG=,MANNED,NORMAL,OPERATIONAL,"24","22","1003","013",-,"130",-,-,"10000",FEW010 BKN020,NO_SIGNIFICANT_CHANGES,
"2025-07-17 15:01:00","20250717","15:00:00",METAR,METAR RKSI 170600Z 13009KT 9999 FEW012 BKN025 25/22 Q1003 NOSIG=,MANNED,NORMAL,OPERATIONAL,"25","22","1003","009",-,"130",-,-,"10000",FEW012 BKN025,NO_SIGNIFICANT_CHANGES,
"2025-07-17 15:11:00","20250717","15:00:00",METAR,METAR RKSI 170600Z 14009KT 9999 FEW012 BKN025 25/22 Q1003 NOSIG=,MANNED,NORMAL,OPERATIONAL,"25","22","1003","009",-,"140",-,-,"10000",FEW012 BKN025,NO_SIGNIFICANT_CHANGES,
"2025-07-17 15:21:00","20250717","15:00:00",METAR,METAR RKSI 170600Z 14009KT 9999 FEW012 BKN025 25/22 Q1003 NOSIG=,MANNED,NORMAL,OPERATIONAL,"25","22","1003","009",-,"140",-,-,"10000",FEW012 BKN025,NO_SIGNIFICANT_CHANGES,
"2025-07-17 15:31:00","20250717","15:30:00",METAR,METAR RKSI 170630Z 15009KT 9999 SCT011 BKN025 24/22 Q1003 NOSIG=,MANNED,NORMAL,OPERATIONAL,"24","22","1003","009",-,"150",-,-,"10000",SCT011 BKN025,NO_SIGNIFICANT_CHANGES,
"2025-07-17 15:41:00","20250717","15:30:00",METAR,METAR RKSI 170630Z 15009KT 9999 SCT011 BKN025 24/22 Q1003 NOSIG=,MANNED,NORMAL,OPERATIONAL,"24","22","1003","009",-,"150",-,-,"10000",SCT011 BKN025,NO_SIGNIFICANT_CHANGES,
"2025-07-17 15:51:00","20250717","15:30:00",METAR,METAR RKSI 170630Z 15009KT 9999 SCT011 BKN025 24/22 Q1003 NOSIG=,MANNED,NORMAL,OPERATIONAL,"24","22","1003","009",-,"150",-,-,"10000",SCT011 BKN025,NO_SIGNIFICANT_CHANGES,
"2025-07-17 16:01:00","20250717","16:00:00",METAR,"METAR RKSI 170700Z 14008KT 9999 SCT012 BKN025 OVC070 24/22
          Q1003 NOSIG=",MANNED,NORMAL,OPERATIONAL,"24","22","1003","008",-,"140",-,-,"10000",SCT012 BKN025 OVC070,NO_SIGNIFICANT_CHANGES,
"2025-07-17 16:11:00","20250717","16:00:00",METAR,"METAR RKSI 170700Z 14008KT 9999 SCT012 BKN025 OVC070 24/22
          Q1003 NOSIG=",MANNED,NORMAL,OPERATIONAL,"24","22","1003","008",-,"140",-,-,"10000",SCT012 BKN025 OVC070,NO_SIGNIFICANT_CHANGES,
"2025-07-17 16:21:00","20250717","16:00:00",METAR,"METAR RKSI 170700Z 14008KT 9999 SCT012 BKN025 OVC070 24/22
          Q1003 NOSIG=",MANNED,NORMAL,OPERATIONAL,"24","22","1003","008",-,"140",-,-,"10000",SCT012 BKN025 OVC070,NO_SIGNIFICANT_CHANGES,
"2025-07-18 09:16:34","20250718","09:00:00",METAR,"METAR RKSI 180000Z 17010KT 8000 -RA BKN004 BKN025 OVC060 23/22
          Q1007 NOSIG=",MANNED,NORMAL,OPERATIONAL,"23","22","1007","010",-,"170",-,-,"08000",BKN004 BKN025 OVC060,NO_SIGNIFICANT_CHANGES,
"2025-07-18 10:31:00","20250718","10:30:00",METAR,"METAR RKSI 180130Z 15006KT 6000 RA BKN005 FEW010CB BKN030
          OVC060 22/22 Q1008 NOSIG RMK CB W MOV N=",MANNED,NORMAL,OPERATIONAL,"22","22","1008","006",-,"150",-,-,"06000",BKN005 FEW010CB BKN030 OVC060,NO_SIGNIFICANT_CHANGES,
"2025-07-18 10:41:00","20250718","10:30:00",METAR,"METAR RKSI 180130Z 15006KT 6000 RA BKN005 FEW010CB BKN030
          OVC060 22/22 Q1008 NOSIG RMK CB W MOV N=",MANNED,NORMAL,OPERATIONAL,"22","22","1008","006",-,"150",-,-,"06000",BKN005 FEW010CB BKN030 OVC060,NO_SIGNIFICANT_CHANGES,
"2025-07-18 10:51:00","20250718","10:30:00",METAR,"METAR RKSI 180130Z 15006KT 6000 RA BKN005 FEW010CB BKN030
          OVC060 22/22 Q1008 NOSIG RMK CB W MOV N=",MANNED,NORMAL,OPERATIONAL,"22","22","1008","006",-,"150",-,-,"06000",BKN005 FEW010CB BKN030 OVC060,NO_SIGNIFICANT_CHANGES,
"2025-07-18 11:01:00","20250718","11:00:00",METAR,"METAR RKSI 180200Z 13006KT 100V160 6000 -RA BKN004 BKN040
          OVC070 22/22 Q1007 NOSIG=",MANNED,NORMAL,OPERATIONAL,"22","22","1007","006",-,"130","100","160","06000",BKN004 BKN040 OVC070,NO_SIGNIFICANT_CHANGES,
"2025-07-18 11:11:00","20250718","11:00:00",METAR,"METAR RKSI 180200Z 13006KT 100V160 6000 -RA BKN004 BKN040
          OVC070 22/22 Q1007 NOSIG=",MANNED,NORMAL,OPERATIONAL,"22","22","1007","006",-,"130","100","160","06000",BKN004 BKN040 OVC070,NO_SIGNIFICANT_CHANGES,
"2025-07-18 11:21:00","20250718","11:00:00",METAR,"METAR RKSI 180200Z 13006KT 100V160 6000 -RA BKN004 BKN040
          OVC070 22/22 Q1007 NOSIG=",MANNED,NORMAL,OPERATIONAL,"22","22","1007","006",-,"130","100","160","06000",BKN004 BKN040 OVC070,NO_SIGNIFICANT_CHANGES,
"2025-07-19 18:11:00","20250719","18:00:00",METAR,"METAR RKSI 190900Z 18010KT 9999 FEW008 SCT025 BKN060 26/24
          Q1009 NOSIG=",MANNED,NORMAL,OPERATIONAL,"26","24","1009","010",-,"180",-,-,"10000",FEW008 SCT025 BKN060,NO_SIGNIFICANT_CHANGES,
"2025-07-19 18:21:00","20250719","18:00:00",METAR,"METAR RKSI 190900Z 18010KT 9999 FEW008 SCT025 BKN060 26/24
          Q1009 NOSIG=",MANNED,NORMAL,OPERATIONAL,"26","24","1009","010",-,"180",-,-,"10000",FEW008 SCT025 BKN060,NO_SIGNIFICANT_CHANGES,
"2025-07-19 18:31:00","20250719","18:30:00",METAR,"METAR RKSI 190930Z 20008KT 9999 SCT010 BKN025 OVC060 26/24
          Q1009 NOSIG=",MANNED,NORMAL,OPERATIONAL,"26","24","1009","008",-,"200",-,-,"10000",SCT010 BKN025 OVC060,NO_SIGNIFICANT_CHANGES,
"2025-07-19 18:41:00","20250719","18:30:00",METAR,"METAR RKSI 190930Z 20008KT 9999 SCT010 BKN025 OVC060 26/24
          Q1009 NOSIG=",MANNED,NORMAL,OPERATIONAL,"26","24","1009","008",-,"200",-,-,"10000",SCT010 BKN025 OVC060,NO_SIGNIFICANT_CHANGES,
"2025-07-19 18:51:00","20250719","18:30:00",METAR,"METAR RKSI 190930Z 20008KT 9999 SCT010 BKN025 OVC060 26/24
          Q1009 NOSIG=",MANNED,NORMAL,OPERATIONAL,"26","24","1009","008",-,"200",-,-,"10000",SCT010 BKN025 OVC060,NO_SIGNIFICANT_CHANGES,
"2025-07-19 19:01:00","20250719","19:00:00",METAR,"METAR RKSI 191000Z 20009KT 9999 SCT010 BKN025 BKN065 26/24
          Q1009 NOSIG=",MANNED,NORMAL,OPERATIONAL,"26","24","1009","009",-,"200",-,-,"10000",SCT010 BKN025 BKN065,NO_SIGNIFICANT_CHANGES,
"2025-07-19 19:11:00","20250719","19:00:00",METAR,"METAR RKSI 191000Z 20009KT 9999 SCT010 BKN025 BKN065 26/24
          Q1009 NOSIG=",MANNED,NORMAL,OPERATIONAL,"26","24","1009","009",-,"200",-,-,"10000",SCT010 BKN025 BKN065,NO_SIGNIFICANT_CHANGES,
"2025-07-20 14:31:00","20250720","14:30:00",METAR,METAR RKSI 200530Z 21014KT 180V240 CAVOK 31/24 Q1012 NOSIG=,MANNED,NORMAL,OPERATIONAL,"31","24","1012","014",-,"210","180","240","10000",CAVOK,NO_SIGNIFICANT_CHANGES,
"2025-07-20 14:41:00","20250720","14:30:00",METAR,METAR RKSI 200530Z 21014KT 180V240 CAVOK 31/24 Q1012 NOSIG=,MANNED,NORMAL,OPERATIONAL,"31","24","1012","014",-,"210","180","240","10000",CAVOK,NO_SIGNIFICANT_CHANGES,
"2025-07-20 14:51:00","20250720","14:30:00",METAR,METAR RKSI 200530Z 21014KT 180V240 CAVOK 31/24 Q1012 NOSIG=,MANNED,NORMAL,OPERATIONAL,"31","24","1012","014",-,"210","180","240","10000",CAVOK,NO_SIGNIFICANT_CHANGES,
"2025-07-20 15:01:00","20250720","15:00:00",METAR,METAR RKSI 200600Z 21013KT CAVOK 31/24 Q1011 NOSIG=,MANNED,NORMAL,OPERATIONAL,"31","24","1011","013",-,"210",-,-,"10000",CAVOK,NO_SIGNIFICANT_CHANGES,
"2025-07-20 15:11:00","20250720","15:00:00",METAR,METAR RKSI 200600Z 21013KT CAVOK 31/24 Q1011 NOSIG=,MANNED,NORMAL,OPERATIONAL,"31","24","1011","013",-,"210",-,-,"10000",CAVOK,NO_SIGNIFICANT_CHANGES,
"2025-07-20 15:21:00","20250720","15:00:00",METAR,METAR RKSI 200600Z 21013KT CAVOK 31/24 Q1011 NOSIG=,MANNED,NORMAL,OPERATIONAL,"31","24","1011","013",-,"210",-,-,"10000",CAVOK,NO_SIGNIFICANT_CHANGES,
"2025-07-21 12:51:00","20250721","12:30:00",METAR,METAR RKSI 210330Z 21013KT 9999 FEW014 SCT035 29/25 Q1015 NOSIG=,MANNED,NORMAL,OPERATIONAL,"29","25","1015","013",-,"210",-,-,"10000",FEW014 SCT035,NO_SIGNIFICANT_CHANGES,
"2025-07-21 13:01:00","20250721","13:00:00",METAR,METAR RKSI 210400Z 21014KT 9999 FEW015 SCT035 30/25 Q1014 NOSIG=,MANNED,NORMAL,OPERATIONAL,"30","25","1014","014",-,"210",-,-,"10000",FEW015 SCT035,NO_SIGNIFICANT_CHANGES,
"2025-07-21 13:11:00","20250721","13:00:00",METAR,METAR RKSI 210400Z 21014KT 9999 FEW015 SCT035 30/25 Q1014 NOSIG=,MANNED,NORMAL,OPERATIONAL,"30","25","1014","014",-,"210",-,-,"10000",FEW015 SCT035,NO_SIGNIFICANT_CHANGES,
"2025-07-21 13:21:00","20250721","13:00:00",METAR,METAR RKSI 210400Z 21014KT 9999 FEW015 SCT035 30/25 Q1014 NOSIG=,MANNED,NORMAL,OPERATIONAL,"30","25","1014","014",-,"210",-,-,"10000",FEW015 SCT035,NO_SIGNIFICANT_CHANGES,
"2025-07-21 13:31:00","20250721","13:30:00",METAR,"METAR RKSI 210430Z 22014KT 190V250 9999 FEW015 SCT035 30/25
          Q1014 NOSIG=",MANNED,NORMAL,OPERATIONAL,"30","25","1014","014",-,"220","190","250","10000",FEW015 SCT035,NO_SIGNIFICANT_CHANGES,
"2025-07-21 13:41:00","20250721","13:30:00",METAR,"METAR RKSI 210430Z 22014KT 190V250 9999 FEW015 SCT035 30/25
          Q1014 NOSIG=",MANNED,NORMAL,OPERATIONAL,"30","25","1014","014",-,"220","190","250","10000",FEW015 SCT035,NO_SIGNIFICANT_CHANGES,
"2025-07-21 13:51:00","20250721","13:30:00",METAR,"METAR RKSI 210430Z 22014KT 190V250 9999 FEW015 SCT035 30/25
          Q1014 NOSIG=",MANNED,NORMAL,OPERATIONAL,"30","25","1014","014",-,"220","190","250","10000",FEW015 SCT035,NO_SIGNIFICANT_CHANGES,
"2025-07-21 14:01:00","20250721","14:00:00",METAR,METAR RKSI 210500Z 22015KT 9999 FEW015 SCT035 30/25 Q1014 NOSIG=,MANNED,NORMAL,OPERATIONAL,"30","25","1014","015",-,"220",-,-,"10000",FEW015 SCT035,NO_SIGNIFICANT_CHANGES,
"2025-07-21 14:11:00","20250721","14:00:00",METAR,METAR RKSI 210500Z 22015KT 9999 FEW015 SCT035 30/25 Q1014 NOSIG=,MANNED,NORMAL,OPERATIONAL,"30","25","1014","015",-,"220",-,-,"10000",FEW015 SCT035,NO_SIGNIFICANT_CHANGES,
"2025-07-21 14:21:00","20250721","14:00:00",METAR,METAR RKSI 210500Z 22015KT 9999 FEW015 SCT035 30/25 Q1014 NOSIG=,MANNED,NORMAL,OPERATIONAL,"30","25","1014","015",-,"220",-,-,"10000",FEW015 SCT035,NO_SIGNIFICANT_CHANGES,
"2025-07-21 14:31:00","20250721","14:30:00",METAR,METAR RKSI 210530Z 21015KT 9999 FEW015 30/25 Q1014 NOSIG=,MANNED,NORMAL,OPERATIONAL,"30","25","1014","015",-,"210",-,-,"10000",FEW015,NO_SIGNIFICANT_CHANGES,
"2025-07-21 14:41:00","20250721","14:30:00",METAR,METAR RKSI 210530Z 21015KT 9999 FEW015 30/25 Q1014 NOSIG=,MANNED,NORMAL,OPERATIONAL,"30","25","1014","015",-,"210",-,-,"10000",FEW015,NO_SIGNIFICANT_CHANGES,
"2025-07-21 14:51:00","20250721","14:30:00",METAR,METAR RKSI 210530Z 21015KT 9999 FEW015 30/25 Q1014 NOSIG=,MANNED,NORMAL,OPERATIONAL,"30","25","1014","015",-,"210",-,-,"10000",FEW015,NO_SIGNIFICANT_CHANGES,
